{"type": "FeatureCollection", "features": [ {"type": "Feature", "properties": {"norad_id": 37216, "name": "COSMO-SKYMED 4", "group": "resource", "lat": -31.073127924109674, "lon": -179.60560349829595, "alt_km": 628.990373175332, "timestamp": "2025-12-20T09:36:01.288468+00:00", "meta": {"OBJECT_NAME": "COSMO-SKYMED 4", "OBJECT_ID": "2010-060A", "EPOCH": "2025-12-20T04:52:51.566304", "MEAN_MOTION": 14.82153161, "ECCENTRICITY": 0.0001397, "INCLINATION": 97.8798, "RA_OF_ASC_NODE": 175.4135, "ARG_OF_PERICENTER": 83.7669, "MEAN_ANOMALY": 276.3703, "EPHEMERIS_TYPE": 0, "CLASSIFICATION_TYPE": "U", "NORAD_CAT_ID": 37216, "ELEMENT_SET_NO": 999, "REV_AT_EPOCH": 81805, "BSTAR": 7.3682e-05, "MEAN_MOTION_DOT": 5.34e-06, "MEAN_MOTION_DDOT": 0}, "tle": {"line1": "1 37216U 10060A   25354.20337461  .00000534  00000+0  73682-4 0  9992", "line2": "2 37216  97.8798 175.4135 0001397  83.7669 276.3703 14.82153161818056"}}, "geometry": {"type": "Point", "coordinates": [-179.60560349829595, -31.073127924109674]}}, {"type": "Feature", "properties": {"norad_id": 37387, "name": "RESOURCESAT-2", "group": "resource", "lat": 65.16709598604963, "lon": 38.391351874884386, "alt_km": 810.4447916015342, "timestamp": "2025-12-20T09:36:01.288479+00:00", "meta": {"OBJECT_NAME": "RESOURCESAT-2", "OBJECT_ID": "2011-015A", "EPOCH": "2025-12-20T04:13:14.196000", "MEAN_MOTION": 14.21600026, "ECCENTRICITY": 0.0006082, "INCLINATION": 98.7867, "RA_OF_ASC_NODE": 57.694, "ARG_OF_PERICENTER": 22.6144, "MEAN_ANOMALY": 337.53, "EPHEMERIS_TYPE": 0, "CLASSIFICATION_TYPE": "U", "NORAD_CAT_ID": 37387, "ELEMENT_SET_NO": 999, "REV_AT_EPOCH": 76074, "BSTAR": 6.6613e-05, "MEAN_MOTION_DOT": 1.02e-06, "MEAN_MOTION_DDOT": 0}, "tle": {"line1": "1 37387U 11015A   25354.17585875  .00000102  00000+0  66613-4 0  9999", "line2": "2 37387  98.7867  57.6940 0006082  22.6144 337.5300 14.21600026760748"}}, "geometry": {"type": "Point", "coordinates": [38.391351874884386, 65.16709598604963]}}, {"type": "Feature", "properties": {"norad_id": 37781, "name": "HAIYANG-2A", "group": "resource", "lat": 16.768065990816407, "lon": -7.624858858000216, "alt_km": 967.7645202662952, "timestamp": "2025-12-20T09:36:01.288489+00:00", "meta": {"OBJECT_NAME": "HAIYANG-2A", "OBJECT_ID": "2011-043A", "EPOCH": "2025-12-20T04:17:36.961728", "MEAN_MOTION": 13.78836711, "ECCENTRICITY": 0.0001656, "INCLINATION": 99.3371, "RA_OF_ASC_NODE": 354.9989, "ARG_OF_PERICENTER": 73.6723, "MEAN_ANOMALY": 286.4611, "EPHEMERIS_TYPE": 0, "CLASSIFICATION_TYPE": "U", "NORAD_CAT_ID": 37781, "ELEMENT_SET_NO": 999, "REV_AT_EPOCH": 72201, "BSTAR": 0.00028575, "MEAN_MOTION_DOT": 2.47e-06, "MEAN_MOTION_DDOT": 0}, "tle": {"line1": "1 37781U 11043A   25354.17890002  .00000247  00000+0  28575-3 0  9993", "line2": "2 37781  99.3371 354.9989 0001656  73.6723 286.4611 13.78836711722018"}}, "geometry": {"type": "Point", "coordinates": [-7.624858858000216, 16.768065990816407]}}, {"type": "Feature", "properties": {"norad_id": 37791, "name": "RASAT", "group": "resource", "lat": 65.07484309945428, "lon": 65.77870513104081, "alt_km": 647.5432027409252, "timestamp": "2025-12-20T09:36:01.288499+00:00", "meta": {"OBJECT_NAME": "RASAT", "OBJECT_ID": "2011-044D", "EPOCH": "2025-12-20T06:07:41.426112", "MEAN_MOTION": 14.67919556, "ECCENTRICITY": 0.002154, "INCLINATION": 98.0652, "RA_OF_ASC_NODE": 83.4017, "ARG_OF_PERICENTER": 42.3794, "MEAN_ANOMALY": 339.826, "EPHEMERIS_TYPE": 0, "CLASSIFICATION_TYPE": "U", "NORAD_CAT_ID": 37791, "ELEMENT_SET_NO": 999, "REV_AT_EPOCH": 76693, "BSTAR": 9.3291e-05, "MEAN_MOTION_DOT": 4.86e-06, "MEAN_MOTION_DDOT": 0}, "tle": {"line1": "1 37791U 11044D   25354.25534058  .00000486  00000+0  93291-4 0  9993", "line2": "2 37791  98.0652  83.4017 0021540  42.3794 339.8260 14.67919556766938"}}, "geometry": {"type": "Point", "coordinates": [65.77870513104081, 65.07484309945428]}}, {"type": "Feature", "properties": {"norad_id": 37841, "name": "SRMSAT", "group": "resource", "lat": -7.994224701956522, "lon": -95.659497738521, "alt_km": 861.2295831254914, "timestamp": "2025-12-20T09:36:01.288509+00:00", "meta": {"OBJECT_NAME": "SRMSAT", "OBJECT_ID": "2011-058D", "EPOCH": "2025-12-19T14:40:57.595008", "MEAN_MOTION": 14.11513672, "ECCENTRICITY": 0.0011928, "INCLINATION": 19.9723, "RA_OF_ASC_NODE": 66.3596, "ARG_OF_PERICENTER": 29.0252, "MEAN_ANOMALY": 120.8933, "EPHEMERIS_TYPE": 0, "CLASSIFICATION_TYPE": "U", "NORAD_CAT_ID": 37841, "ELEMENT_SET_NO": 999, "REV_AT_EPOCH": 73241, "BSTAR": 6.4258e-05, "MEAN_MOTION_DOT": 3.83e-06, "MEAN_MOTION_DDOT": 0}, "tle": {"line1": "1 37841U 11058D   25353.61177772  .00000383  00000+0  64258-4 0  9996", "line2": "2 37841  19.9723  66.3596 0011928  29.0252 120.8933 14.11513672732416"}}, "geometry": {"type": "Point", "coordinates": [-95.659497738521, -7.994224701956522]}}, {"type": "Feature", "properties": {"norad_id": 38012, "name": "PLEIADES 1A", "group": "resource", "lat": -35.690148855610026, "lon": 72.98287265571223, "alt_km": 704.3861545421269, "timestamp": "2025-12-20T09:36:01.288520+00:00", "meta": {"OBJECT_NAME": "PLEIADES 1A", "OBJECT_ID": "2011-076F", "EPOCH": "2025-12-20T04:55:50.962080", "MEAN_MOTION": 14.58567927, "ECCENTRICITY": 0.0001142, "INCLINATION": 98.1823, "RA_OF_ASC_NODE": 66.8591, "ARG_OF_PERICENTER": 75.8272, "MEAN_ANOMALY": 307.1531, "EPHEMERIS_TYPE": 0, "CLASSIFICATION_TYPE": "U", "NORAD_CAT_ID": 38012, "ELEMENT_SET_NO": 999, "REV_AT_EPOCH": 74590, "BSTAR": 7.9501e-05, "MEAN_MOTION_DOT": 3.24e-06, "MEAN_MOTION_DDOT": 0}, "tle": {"line1": "1 38012U 11076F   25354.20545095  .00000324  00000+0  79501-4 0  9992", "line2": "2 38012  98.1823  66.8591 0001142  75.8272 307.1531 14.58567927745900"}}, "geometry": {"type": "Point", "coordinates": [72.98287265571223, -35.690148855610026]}}, {"type": "Feature", "properties": {"norad_id": 38038, "name": "ZIYUAN 1-02C (ZY 1-02C)", "group": "resource", "lat": 25.571228910246393, "lon": 56.20214981314587, "alt_km": 764.4171853101279, "timestamp": "2025-12-20T09:36:01.288530+00:00", "meta": {"OBJECT_NAME": "ZIYUAN 1-02C (ZY 1-02C)", "OBJECT_ID": "2011-079A", "EPOCH": "2025-12-20T04:54:04.739328", "MEAN_MOTION": 14.38019719, "ECCENTRICITY": 0.0007435, "INCLINATION": 98.4331, "RA_OF_ASC_NODE": 60.0807, "ARG_OF_PERICENTER": 119.0109, "MEAN_ANOMALY": 334.0362, "EPHEMERIS_TYPE": 0, "CLASSIFICATION_TYPE": "U", "NORAD_CAT_ID": 38038, "ELEMENT_SET_NO": 999, "REV_AT_EPOCH": 73348, "BSTAR": 0.0001086, "MEAN_MOTION_DOT": 2.85e-06, "MEAN_MOTION_DDOT": 0}, "tle": {"line1": "1 38038U 11079A   25354.20422152  .00000285  00000+0  10860-3 0  9999", "line2": "2 38038  98.4331  60.0807 0007435 119.0109 334.0362 14.38019719733482"}}, "geometry": {"type": "Point", "coordinates": [56.20214981314587, 25.571228910246393]}}, {"type": "Feature", "properties": {"norad_id": 38338, "name": "ARIRANG-3 (KOMPSAT-3)", "group": "resource", "lat": -50.984168643328196, "lon": -40.530287281751306, "alt_km": 691.0807571246642, "timestamp": "2025-12-20T09:36:01.288540+00:00", "meta": {"OBJECT_NAME": "ARIRANG-3 (KOMPSAT-3)", "OBJECT_ID": "2012-025B", "EPOCH": "2025-12-20T03:15:53.964864", "MEAN_MOTION": 14.61721587, "ECCENTRICITY": 0.0004906, "INCLINATION": 98.3333, "RA_OF_ASC_NODE": 308.7814, "ARG_OF_PERICENTER": 313.0694, "MEAN_ANOMALY": 47.0095, "EPHEMERIS_TYPE": 0, "CLASSIFICATION_TYPE": "U", "NORAD_CAT_ID": 38338, "ELEMENT_SET_NO": 999, "REV_AT_EPOCH": 72518, "BSTAR": 8.5915e-05, "MEAN_MOTION_DOT": 3.8e-06, "MEAN_MOTION_DDOT": 0}, "tle": {"line1": "1 38338U 12025B   25354.13604126  .00000380  00000+0  85915-4 0  9999", "line2": "2 38338  98.3333 308.7814 0004906 313.0694  47.0095 14.61721587725182"}}, "geometry": {"type": "Point", "coordinates": [-40.530287281751306, -50.984168643328196]}}, {"type": "Feature", "properties": {"norad_id": 38709, "name": "EXACTVIEW-1 (ADS-1B)", "group": "resource", "lat": 12.661926681972782, "lon": 100.91850040583246, "alt_km": 804.3482961900336, "timestamp": "2025-12-20T09:36:01.288551+00:00", "meta": {"OBJECT_NAME": "EXACTVIEW-1 (ADS-1B)", "OBJECT_ID": "2012-039C", "EPOCH": "2025-12-19T21:44:37.095360", "MEAN_MOTION": 14.24910684, "ECCENTRICITY": 0.0010313, "INCLINATION": 98.9639, "RA_OF_ASC_NODE": 102.4464, "ARG_OF_PERICENTER": 333.0281, "MEAN_ANOMALY": 27.036, "EPHEMERIS_TYPE": 0, "CLASSIFICATION_TYPE": "U", "NORAD_CAT_ID": 38709, "ELEMENT_SET_NO": 999, "REV_AT_EPOCH": 69717, "BSTAR": 6.0667e-05, "MEAN_MOTION_DOT": 9.5e-07, "MEAN_MOTION_DDOT": 0}, "tle": {"line1": "1 38709U 12039C   25353.90598490  .00000095  00000+0  60667-4 0  9996", "line2": "2 38709  98.9639 102.4464 0010313 333.0281  27.0360 14.24910684697179"}}, "geometry": {"type": "Point", "coordinates": [100.91850040583246, 12.661926681972782]}}, {"type": "Feature", "properties": {"norad_id": 38755, "name": "SPOT 6", "group": "resource", "lat": -66.47686448730025, "lon": -140.1951447319019, "alt_km": 706.0425739902475, "timestamp": "2025-12-20T09:36:01.288561+00:00", "meta": {"OBJECT_NAME": "SPOT 6", "OBJECT_ID": "2012-047A", "EPOCH": "2025-12-20T03:31:41.647584", "MEAN_MOTION": 14.58538, "ECCENTRICITY": 0.000131, "INCLINATION": 98.1571, "RA_OF_ASC_NODE": 58.7955, "ARG_OF_PERICENTER": 79.8987, "MEAN_ANOMALY": 280.2361, "EPHEMERIS_TYPE": 0, "CLASSIFICATION_TYPE": "U", "NORAD_CAT_ID": 38755, "ELEMENT_SET_NO": 999, "REV_AT_EPOCH": 70695, "BSTAR": 3.3217e-05, "MEAN_MOTION_DOT": 1.09e-06, "MEAN_MOTION_DDOT": 0}, "tle": {"line1": "1 38755U 12047A   25354.14700981  .00000109  00000+0  33217-4 0  9990", "line2": "2 38755  98.1571  58.7955 0001310  79.8987 280.2361 14.58538000706956"}}, "geometry": {"type": "Point", "coordinates": [-140.1951447319019, -66.47686448730025]}}]}